NORAD_CAT_ID,OBJECT_NAME,OBJECT_TYPE,EPOCH,MEAN_MOTION,ECCENTRICITY,INCLINATION,RA_OF_ASC_NODE,ARG_OF_PERICENTER,MEAN_ANOMALY,BSTAR,MEAN_MOTION_DOT,MEAN_MOTION_DDOT,TLE_LINE0,TLE_LINE1,TLE_LINE2,SEMIMAJOR_AXIS,PERIOD,APOGEE,PERIGEE,DECAYED
55928.0,STARLINK-5930,PAYLOAD,2023-06-15 17:06:44,14.98336923,0.0003489,69.9991,300.5537,269.3232,90.7527,-0.00015235,-1.911e-05,0.0,0 STARLINK-5930,1 55928U 23037Q   23166.71301463 -.00001911  00000-0 -15235-3 0  9990,2 55928  69.9991 300.5537 0003489 269.3232  90.7527 14.98336923 14001,6950.171,96.107,574.461,569.612,0.0
55928.0,STARLINK-5930,PAYLOAD,2023-06-16 02:43:32,14.98341355,0.0003531,69.9992,299.5437,274.3847,85.6908,-0.00013091,-1.655e-05,0.0,0 STARLINK-5930,1 55928U 23037Q   23167.11356939 -.00001655  00000-0 -13091-3 0  9996,2 55928  69.9992 299.5437 0003531 274.3847  85.6908 14.98341355 14409,6950.158,96.106,574.477,569.569,0.0
55928.0,STARLINK-5930,PAYLOAD,2023-06-16 12:20:20,14.98335855,0.0003518,69.9991,298.5336,270.656,89.4196,9.8281e-05,1.08e-05,0.0,0 STARLINK-5930,1 55928U 23037Q   23167.51412480  .00001080  00000-0  98281-4 0  9999,2 55928  69.9991 298.5336 0003518 270.6560  89.4196 14.98335855 14129,6950.175,96.107,574.485,569.595,0.0
55928.0,STARLINK-5930,PAYLOAD,2023-06-16 18:44:52,14.9834239,0.0003464,69.9992,297.8604,269.1068,90.9694,0.00014951,1.692e-05,0.0,0 STARLINK-5930,1 55928U 23037Q   23167.78115753  .00001692  00000-0  14951-3 0  9991,2 55928  69.9992 297.8604 0003464 269.1068  90.9694 14.98342390 14162,6950.155,96.106,574.427,569.612,0.0
55928.0,STARLINK-5930,PAYLOAD,2023-06-17 07:33:58,14.98321367,0.000352,69.9991,296.5139,269.837,90.2385,-3.5586e-05,-5.18e-06,0.0,0 STARLINK-5930,1 55928U 23037Q   23168.31525569 -.00000518  00000-0 -35586-4 0  9997,2 55928  69.9991 296.5139 0003520 269.8370  90.2385 14.98321367 14583,6950.22,96.108,574.531,569.638,0.0
55928.0,STARLINK-5930,PAYLOAD,2023-06-17 09:10:06,14.98319903,0.0003632,69.9988,296.3447,266.3988,93.6755,-5.9643e-05,-8.05e-06,0.0,0 STARLINK-5930,1 55928U 23037Q   23168.38201716 -.00000805  00000-0 -59643-4 0  9998,2 55928  69.9988 296.3447 0003632 266.3988  93.6755 14.98319903 14255,6950.224,96.108,574.613,569.565,0.0
55928.0,STARLINK-5930,PAYLOAD,2023-06-17 17:10:46,14.9832426,0.0003086,69.9988,295.5038,259.9905,100.0905,-0.00017291,-2.155e-05,0.0,0 STARLINK-5930,1 55928U 23037Q   23168.71581945 -.00002155  00000-0 -17291-3 0  9992,2 55928  69.9988 295.5038 0003086 259.9905 100.0905 14.98324260 14300,6950.211,96.107,574.22,569.931,0.0
55928.0,STARLINK-5930,PAYLOAD,2023-06-18 07:35:58,14.98331569,0.0003656,69.999,293.9888,267.0838,92.9903,-0.00010345,-1.327e-05,0.0,0 STARLINK-5930,1 55928U 23037Q   23169.31665493 -.00001327  00000-0 -10345-3 0  9993,2 55928  69.9990 293.9888 0003656 267.0838  92.9903 14.98331569 14730,6950.188,96.107,574.594,569.512,0.0
55928.0,STARLINK-5930,PAYLOAD,2023-06-18 18:48:54,14.98336509,0.0003431,69.9995,292.8112,265.5452,94.5315,-3.6371e-05,-5.27e-06,0.0,0 STARLINK-5930,1 55928U 23037Q   23169.78396890 -.00000527  00000-0 -36371-4 0  9995,2 55928  69.9995 292.8112 0003431 265.5452  94.5315 14.98336509 14463,6950.173,96.107,574.422,569.653,0.0
55928.0,STARLINK-5930,PAYLOAD,2023-06-19 01:13:26,14.98351172,0.0003785,69.9991,292.1372,269.3874,90.6851,-0.00027721,-3.401e-05,0.0,0 STARLINK-5930,1 55928U 23037Q   23170.05100324 -.00003401  00000-0 -27721-3 0  9994,2 55928  69.9991 292.1372 0003785 269.3874  90.6851 14.98351172 14849,6950.127,96.106,574.623,569.362,0.0
55928.0,STARLINK-5930,PAYLOAD,2023-06-19 14:02:31,14.98327803,0.0003656,69.9993,290.791,265.0491,95.0251,0.00015918,1.807e-05,0.0,0 STARLINK-5930,1 55928U 23037Q   23170.58508826  .00001807  00000-0  15918-3 0  9992,2 55928  69.9993 290.7910 0003656 265.0491  95.0251 14.98327803 14586,6950.2,96.107,574.606,569.524,0.0
55928.0,STARLINK-5930,PAYLOAD,2023-06-20 07:40:00,14.9832971,0.0003553,69.9999,288.9404,266.002,94.0733,-5.213e-05,-7.15e-06,0.0,0 STARLINK-5930,1 55928U 23037Q   23171.31945310 -.00000715  00000-0 -52130-4 0  9994,2 55928  69.9999 288.9404 0003553 266.0020  94.0733 14.98329710 14699,6950.194,96.107,574.528,569.589,0.0
55928.0,STARLINK-5930,PAYLOAD,2023-06-20 17:16:49,14.98329581,0.000366,70.0,287.931,269.9878,90.0861,-1.8907e-05,-3.19e-06,0.0,0 STARLINK-5930,1 55928U 23037Q   23171.72001217 -.00000319  00000-0 -18907-4 0  9992,2 55928  70.0000 287.9310 0003660 269.9878  90.0861 14.98329581 15091,6950.194,96.107,574.603,569.515,0.0
55928.0,STARLINK-5930,PAYLOAD,2023-06-21 14:06:33,14.98331302,0.0003678,69.9995,285.742,268.5898,91.4839,-2.5045e-05,-3.92e-06,0.0,0 STARLINK-5930,1 55928U 23037Q   23172.58789036 -.00000392  00000-0 -25045-4 0  9991,2 55928  69.9995 285.7420 0003678 268.5898  91.4839 14.98331302 14885,6950.189,96.107,574.61,569.498,0.0
55928.0,STARLINK-5930,PAYLOAD,2023-06-21 17:18:49,14.983314,0.0003701,69.9996,285.4054,268.9909,91.0826,-1.6765e-05,-2.93e-06,0.0,0 STARLINK-5930,1 55928U 23037Q   23172.72140959 -.00000293  00000-0 -16765-4 0  9991,2 55928  69.9996 285.4054 0003701 268.9909  91.0826 14.98331400 15242,6950.189,96.107,574.626,569.481,0.0
55928.0,STARLINK-5930,PAYLOAD,2023-06-22 17:20:50,14.98333335,0.0003702,69.9994,282.8791,268.4468,91.6267,4.9648e-05,4.99e-06,0.0,0 STARLINK-5930,1 55928U 23037Q   23173.72280645  .00000499  00000-0  49648-4 0  9991,2 55928  69.9994 282.8791 0003702 268.4468  91.6267 14.98333335 15395,6950.183,96.107,574.621,569.475,0.0
55928.0,STARLINK-5930,PAYLOAD,2023-06-23 17:22:51,14.98333356,0.0003745,69.9991,280.3545,268.2191,91.8539,0.00014107,1.591e-05,0.0,0 STARLINK-5930,1 55928U 23037Q   23174.72420228  .00001591  00000-0  14107-3 0  9990,2 55928  69.9991 280.3545 0003745 268.2191  91.8539 14.98333356 15544,6950.183,96.107,574.65,569.445,0.0
55928.0,STARLINK-5930,PAYLOAD,2023-06-24 07:48:04,14.98324554,0.0003644,69.9998,278.8406,268.2337,91.8404,-7.0319e-06,-1.77e-06,0.0,0 STARLINK-5930,1 55928U 23037Q   23175.32505136 -.00000177  00000-0 -70319-5 0  9999,2 55928  69.9998 278.8406 0003644 268.2337  91.8404 14.98324554 15630,6950.21,96.107,574.607,569.542,0.0
55928.0,STARLINK-5930,PAYLOAD,2023-06-25 09:26:13,14.98331277,0.0003626,69.9992,276.1463,271.1231,88.9513,-3.3484e-05,-4.93e-06,0.0,0 STARLINK-5930,1 55928U 23037Q   23176.39320788 -.00000493  00000-0 -33484-4 0  9997,2 55928  69.9992 276.1463 0003626 271.1231  88.9513 14.98331277 15799,6950.189,96.107,574.574,569.534,0.0
55928.0,STARLINK-5930,PAYLOAD,2023-06-26 09:28:14,14.98323737,0.0003519,69.9993,273.6218,268.8309,91.2447,-3.7372e-06,-1.38e-06,0.0,0 STARLINK-5930,1 55928U 23037Q   23177.39461142 -.00000138  00000-0 -37372-5 0  9995,2 55928  69.9993 273.6218 0003519 268.8309  91.2447 14.98323737 15942,6950.212,96.107,574.523,569.631,0.0
55928.0,STARLINK-5930,PAYLOAD,2023-06-27 11:06:23,14.98328786,0.0003716,69.9991,270.9282,270.3708,89.7025,5.2359e-06,-3.1e-07,0.0,0 STARLINK-5930,1 55928U 23037Q   23178.46276915 -.00000031  00000-0  52359-5 0  9999,2 55928  69.9991 270.9282 0003716 270.3708  89.7025 14.98328786 16103,6950.197,96.107,574.644,569.479,0.0
55928.0,STARLINK-5930,PAYLOAD,2023-06-27 15:54:46,14.98374918,0.0003844,69.9992,270.423,266.2132,93.8587,-0.00071981,-8.682e-05,0.0,0 STARLINK-5930,1 55928U 23037Q   23178.66303590 -.00008682  00000-0 -71981-3 0  9992,2 55928  69.9992 270.4230 0003844 266.2132  93.8587 14.98374918 16139,6950.054,96.104,574.591,569.247,0.0
55928.0,STARLINK-5930,PAYLOAD,2023-06-27 23:55:27,14.98329059,0.0003675,69.9992,269.5815,268.7731,91.3007,2.4618e-05,2.01e-06,0.0,0 STARLINK-5930,1 55928U 23037Q   23178.99684812  .00000201  00000-0  24618-4 0  9990,2 55928  69.9992 269.5815 0003675 268.7731  91.3007 14.98329059 16182,6950.196,96.107,574.615,569.507,0.0
55928.0,STARLINK-5930,PAYLOAD,2023-06-29 11:10:24,14.98330739,0.000367,69.9994,265.8783,268.6681,91.4058,1.6324e-05,1.02e-06,0.0,0 STARLINK-5930,1 55928U 23037Q   23180.46556609  .00000102  00000-0  16324-4 0  9992,2 55928  69.9994 265.8783 0003670 268.6681  91.4058 14.98330739 16404,6950.191,96.107,574.606,569.505,0.0
55928.0,STARLINK-5930,PAYLOAD,2023-06-30 16:00:49,14.98334307,0.0003686,69.9996,262.8492,268.4813,91.5923,1.5181e-05,8.8e-07,0.0,0 STARLINK-5930,1 55928U 23037Q   23181.66724163  .00000088  00000-0  15181-4 0  9990,2 55928  69.9996 262.8492 0003686 268.4813  91.5923 14.98334307 16588,6950.18,96.107,574.606,569.483,0.0
55928.0,STARLINK-5930,PAYLOAD,2023-06-30 22:25:22,14.98329414,0.0003667,69.9996,262.1754,270.7732,89.3007,-4.2702e-05,-6.03e-06,0.0,0 STARLINK-5930,1 55928U 23037Q   23181.93428593 -.00000603  00000-0 -42702-4 0  9992,2 55928  69.9996 262.1754 0003667 270.7732  89.3007 14.98329414 16623,6950.195,96.107,574.608,569.511,0.0
55928.0,STARLINK-5930,PAYLOAD,2023-07-01 22:27:23,14.98329058,0.0003713,69.9995,259.6507,270.0892,89.9842,-1.7429e-05,-3.01e-06,0.0,0 STARLINK-5930,1 55928U 23037Q   23182.93568617 -.00000301  00000-0 -17429-4 0  9998,2 55928  69.9995 259.6507 0003713 270.0892  89.9842 14.98329058 16774,6950.196,96.107,574.641,569.48,0.0
55928.0,STARLINK-5930,PAYLOAD,2023-07-02 22:29:23,14.98332081,0.0003839,69.9991,257.1256,270.4292,89.6428,2.2822e-06,-6.6e-07,0.0,0 STARLINK-5930,1 55928U 23037Q   23183.93708217 -.00000066  00000-0  22822-5 0  9992,2 55928  69.9991 257.1256 0003839 270.4292  89.6428 14.98332081 16925,6950.186,96.107,574.72,569.383,0.0
55928.0,STARLINK-5930,PAYLOAD,2023-07-03 22:31:24,14.98328908,0.0003867,69.9991,254.6006,270.1042,89.9674,1.2988e-05,6.2e-07,0.0,0 STARLINK-5930,1 55928U 23037Q   23184.93848366  .00000062  00000-0  12988-4 0  9999,2 55928  69.9991 254.6006 0003867 270.1042  89.9674 14.98328908 17077,6950.196,96.107,574.749,569.374,0.0
55928.0,STARLINK-5930,PAYLOAD,2023-07-05 11:22:30,14.98330905,0.0003815,69.9992,250.729,269.2903,90.7819,-3.0559e-06,-1.3e-06,0.0,0 STARLINK-5930,1 55928U 23037Q   23186.47396129 -.00000130  00000-0 -30559-5 0  9998,2 55928  69.9992 250.7290 0003815 269.2903  90.7819 14.98330905 17305,6950.19,96.107,574.707,569.404,0.0
